[{"OBJECT_NAME":"GPS BIIR-08","OBJECT_ID":"2003-005A","EPOCH":"2026-04-25T06:28:28.786368","MEAN_MOTION":2.00563368,"ECCENTRICITY":0.01482,"INCLINATION":54.8929,"RA_OF_ASC_NODE":217.0709,"ARG_OF_PERICENTER":52.9584,"MEAN_ANOMALY":317.9588,"EPHEMERIS_TYPE":0,"CLASSIFICATION_TYPE":"U","NORAD_CAT_ID":27663,"ELEMENT_SET_NO":999,"REV_AT_EPOCH":17025,"BSTAR":0,"MEAN_MOTION_DOT":-4.5e-7,"MEAN_MOTION_DDOT":0},{"OBJECT_NAME":"GPS BIIR-11","OBJECT_ID":"2004-009A","EPOCH":"2026-04-25T13:01:03.283104","MEAN_MOTION":2.00556347,"ECCENTRICITY":0.0113634,"INCLINATION":54.8745,"RA_OF_ASC_NODE":277.8127,"ARG_OF_PERICENTER":170.7965,"MEAN_ANOMALY":191.3848,"EPHEMERIS_TYPE":0,"CLASSIFICATION_TYPE":"U","NORAD_CAT_ID":28190,"ELEMENT_SET_NO":999,"REV_AT_EPOCH":16189,"BSTAR":0,"MEAN_MOTION_DOT":-3.7e-7,"MEAN_MOTION_DDOT":0},{"OBJECT_NAME":"GPS BIIR-13","OBJECT_ID":"2004-045A","EPOCH":"2026-04-24T18:04:08.259168","MEAN_MOTION":2.0055335,"ECCENTRICITY":0.01700868,"INCLINATION":55.1665,"RA_OF_ASC_NODE":327.0483,"ARG_OF_PERICENTER":314.9297,"MEAN_ANOMALY":262.4767,"EPHEMERIS_TYPE":0,"CLASSIFICATION_TYPE":"U","NORAD_CAT_ID":28474,"ELEMENT_SET_NO":999,"REV_AT_EPOCH":15735,"BSTAR":0,"MEAN_MOTION_DOT":-7.0e-7,"MEAN_MOTION_DDOT":0},{"OBJECT_NAME":"GPS BIIR-14M","OBJECT_ID":"2005-038A","EPOCH":"2026-04-25T18:24:38.603808","MEAN_MOTION":2.00569269,"ECCENTRICITY":0.0127786,"INCLINATION":54.9222,"RA_OF_ASC_NODE":275.2914,"ARG_OF_PERICENTER":295.8447,"MEAN_ANOMALY":254.9889,"EPHEMERIS_TYPE":0,"CLASSIFICATION_TYPE":"U","NORAD_CAT_ID":28874,"ELEMENT_SET_NO":999,"REV_AT_EPOCH":15078,"BSTAR":0,"MEAN_MOTION_DOT":-4.0e-7,"MEAN_MOTION_DDOT":0},{"OBJECT_NAME":"METEOSAT-9 (MSG-2)","OBJECT_ID":"2005-049B","EPOCH":"2026-04-24T22:25:33.860352","MEAN_MOTION":1.00273882,"ECCENTRICITY":4.322e-5,"INCLINATION":9.2443,"RA_OF_ASC_NODE":54.6814,"ARG_OF_PERICENTER":351.2709,"MEAN_ANOMALY":189.0341,"EPHEMERIS_TYPE":0,"CLASSIFICATION_TYPE":"U","NORAD_CAT_ID":28912,"ELEMENT_SET_NO":999,"REV_AT_EPOCH":646,"BSTAR":0,"MEAN_MOTION_DOT":1.14e-6,"MEAN_MOTION_DDOT":0},{"OBJECT_NAME":"GPS BIIR-16M","OBJECT_ID":"2006-052A","EPOCH":"2026-04-24T13:40:50.622240","MEAN_MOTION":2.00555028,"ECCENTRICITY":0.00864806,"INCLINATION":54.9441,"RA_OF_ASC_NODE":216.131,"ARG_OF_PERICENTER":90.248,"MEAN_ANOMALY":270.7556,"EPHEMERIS_TYPE":0,"CLASSIFICATION_TYPE":"U","NORAD_CAT_ID":29601,"ELEMENT_SET_NO":999,"REV_AT_EPOCH":14233,"BSTAR":0,"MEAN_MOTION_DOT":-3.8e-7,"MEAN_MOTION_DDOT":0},{"OBJECT_NAME":"GPS BIIR-17M","OBJECT_ID":"2007-047A","EPOCH":"2026-04-23T21:04:11.459424","MEAN_MOTION":2.00557941,"ECCENTRICITY":0.01647061,"INCLINATION":54.0564,"RA_OF_ASC_NODE":82.3027,"ARG_OF_PERICENTER":86.4532,"MEAN_ANOMALY":275.4105,"EPHEMERIS_TYPE":0,"CLASSIFICATION_TYPE":"U","NORAD_CAT_ID":32260,"ELEMENT_SET_NO":999,"REV_AT_EPOCH":13572,"BSTAR":0,"MEAN_MOTION_DOT":1.5e-7,"MEAN_MOTION_DDOT":0},{"OBJECT_NAME":"GPS BIIR-18M","OBJECT_ID":"2007-062A","EPOCH":"2026-04-25T10:36:09.677088","MEAN_MOTION":2.00556762,"ECCENTRICITY":0.0034544,"INCLINATION":55.0752,"RA_OF_ASC_NODE":276.2714,"ARG_OF_PERICENTER":162.3254,"MEAN_ANOMALY":13.9135,"EPHEMERIS_TYPE":0,"CLASSIFICATION_TYPE":"U","NORAD_CAT_ID":32384,"ELEMENT_SET_NO":999,"REV_AT_EPOCH":13445,"BSTAR":0,"MEAN_MOTION_DOT":-3.6e-7,"MEAN_MOTION_DDOT":0},{"OBJECT_NAME":"GOES 14","OBJECT_ID":"2009-033A","EPOCH":"2026-04-25T21:02:38.626944","MEAN_MOTION":1.00116377,"ECCENTRICITY":0.000171,"INCLINATION":1.557,"RA_OF_ASC_NODE":83.637,"ARG_OF_PERICENTER":311.6603,"MEAN_ANOMALY":305.3506,"EPHEMERIS_TYPE":0,"CLASSIFICATION_TYPE":"U","NORAD_CAT_ID":35491,"ELEMENT_SET_NO":999,"REV_AT_EPOCH":606,"BSTAR":0,"MEAN_MOTION_DOT":-5.7e-7,"MEAN_MOTION_DDOT":0},{"OBJECT_NAME":"GOES 15","OBJECT_ID":"2010-008A","EPOCH":"2026-04-25T19:02:40.039872","MEAN_MOTION":1.00272333,"ECCENTRICITY":0.000388,"INCLINATION":1.1398,"RA_OF_ASC_NODE":83.801,"ARG_OF_PERICENTER":23.6059,"MEAN_ANOMALY":95.321,"EPHEMERIS_TYPE":0,"CLASSIFICATION_TYPE":"U","NORAD_CAT_ID":36411,"ELEMENT_SET_NO":999,"REV_AT_EPOCH":5911,"BSTAR":0,"MEAN_MOTION_DOT":1.0e-7,"MEAN_MOTION_DDOT":0},{"OBJECT_NAME":"GSAT0101 (GALILEO-PFM)","OBJECT_ID":"2011-060A","EPOCH":"2026-04-23T07:06:19.793088","MEAN_MOTION":1.70475605,"ECCENTRICITY":0.00037725,"INCLINATION":57.0105,"RA_OF_ASC_NODE":343.2506,"ARG_OF_PERICENTER":24.6527,"MEAN_ANOMALY":335.4053,"EPHEMERIS_TYPE":0,"CLASSIFICATION_TYPE":"U","NORAD_CAT_ID":37846,"ELEMENT_SET_NO":999,"REV_AT_EPOCH":9018,"BSTAR":0,"MEAN_MOTION_DOT":-8.7e-7,"MEAN_MOTION_DDOT":0},{"OBJECT_NAME":"GSAT0102 (GALILEO-FM2)","OBJECT_ID":"2011-060B","EPOCH":"2026-04-25T06:44:35.935008","MEAN_MOTION":1.70475917,"ECCENTRICITY":0.0004719,"INCLINATION":57.011,"RA_OF_ASC_NODE":343.1972,"ARG_OF_PERICENTER":9.0108,"MEAN_ANOMALY":174.7955,"EPHEMERIS_TYPE":0,"CLASSIFICATION_TYPE":"U","NORAD_CAT_ID":37847,"ELEMENT_SET_NO":999,"REV_AT_EPOCH":9022,"BSTAR":0,"MEAN_MOTION_DOT":-9.0e-7,"MEAN_MOTION_DDOT":0},{"OBJECT_NAME":"LUCH 5A","OBJECT_ID":"2011-074B","EPOCH":"2026-04-25T18:39:20.271744","MEAN_MOTION":1.00272711,"ECCENTRICITY":0.0002714,"INCLINATION":8.6237,"RA_OF_ASC_NODE":74.5624,"ARG_OF_PERICENTER":302.6373,"MEAN_ANOMALY":283.3454,"EPHEMERIS_TYPE":0,"CLASSIFICATION_TYPE":"U","NORAD_CAT_ID":37951,"ELEMENT_SET_NO":999,"REV_AT_EPOCH":5252,"BSTAR":0,"MEAN_MOTION_DOT":-5.7e-7,"MEAN_MOTION_DDOT":0},{"OBJECT_NAME":"METEOSAT-10 (MSG-3)","OBJECT_ID":"2012-035B","EPOCH":"2026-04-25T17:01:56.922240","MEAN_MOTION":1.00267683,"ECCENTRICITY":0.0002076,"INCLINATION":4.55,"RA_OF_ASC_NODE":61.2406,"ARG_OF_PERICENTER":310.7742,"MEAN_ANOMALY":97.3874,"EPHEMERIS_TYPE":0,"CLASSIFICATION_TYPE":"U","NORAD_CAT_ID":38552,"ELEMENT_SET_NO":999,"REV_AT_EPOCH":5033,"BSTAR":0,"MEAN_MOTION_DOT":-1.7e-7,"MEAN_MOTION_DDOT":0},{"OBJECT_NAME":"SARSAT 13 (METOP-B)","OBJECT_ID":"2012-049A","EPOCH":"2026-04-25T19:38:22.413408","MEAN_MOTION":14.21432951,"ECCENTRICITY":0.0003382,"INCLINATION":98.655,"RA_OF_ASC_NODE":168.351,"ARG_OF_PERICENTER":125.2958,"MEAN_ANOMALY":234.8537,"EPHEMERIS_TYPE":0,"CLASSIFICATION_TYPE":"U","NORAD_CAT_ID":38771,"ELEMENT_SET_NO":999,"REV_AT_EPOCH":70582,"BSTAR":6.3134e-5,"MEAN_MOTION_DOT":9.5e-7,"MEAN_MOTION_DDOT":0},{"OBJECT_NAME":"GPS BIIF-3","OBJECT_ID":"2012-053A","EPOCH":"2026-04-23T23:20:21.228288","MEAN_MOTION":2.00566553,"ECCENTRICITY":0.0177937,"INCLINATION":53.5743,"RA_OF_ASC_NODE":145.8203,"ARG_OF_PERICENTER":65.1328,"MEAN_ANOMALY":296.7656,"EPHEMERIS_TYPE":0,"CLASSIFICATION_TYPE":"U","NORAD_CAT_ID":38833,"ELEMENT_SET_NO":999,"REV_AT_EPOCH":9835,"BSTAR":0,"MEAN_MOTION_DOT":4.0e-7,"MEAN_MOTION_DDOT":0},{"OBJECT_NAME":"GSAT0103 (GALILEO-FM3)","OBJECT_ID":"2012-055A","EPOCH":"2026-04-25T02:18:33.956640","MEAN_MOTION":1.70473359,"ECCENTRICITY":0.0005916,"INCLINATION":55.7743,"RA_OF_ASC_NODE":103.0007,"ARG_OF_PERICENTER":295.5097,"MEAN_ANOMALY":64.4243,"EPHEMERIS_TYPE":0,"CLASSIFICATION_TYPE":"U","NORAD_CAT_ID":38857,"ELEMENT_SET_NO":999,"REV_AT_EPOCH":8410,"BSTAR":0,"MEAN_MOTION_DOT":4.7e-7,"MEAN_MOTION_DDOT":0}]
